0 CUTE-1.7+APD II
1 32785U 08021C   13282.39180753  .00001229  00000-0  15318-3 0  7575
2 32785 097.7380 336.6033 0012746 293.7810 127.0823 14.84151987294810
0 CUTE-1.7+APD II
1 32785U 08021C   13283.40352148  .00001213  00000-0  15126-3 0  7588
2 32785 097.7379 337.5846 0012744 290.0302 133.0428 14.84153855294964
0 CUTE-1.7+APD II
1 32785U 08021C   13284.49154418  .00001211  00000-0  15099-3 0  7596
2 32785 097.7378 338.6400 0012761 285.9875 186.7644 14.84156365295121
0 CUTE-1.7+APD II
1 32785U 08021C   13285.77722314  .00001105  00000-0  13827-3 0  7605
2 32785 097.7376 339.8872 0012752 281.3065 216.5600 14.84159243295319
0 CUTE-1.7+APD II
1 32785U 08021C   13287.11030907  .00001339  00000-0  16622-3 0  7611
2 32785 097.7372 341.1803 0012774 276.5120 139.6276 14.84162390295510
0 CUTE-1.7+APD II
1 32785U 08021C   13288.39218872  .00002070  00000-0  25354-3 0  7627
2 32785 097.7368 342.4238 0012808 271.8950 149.1142 14.84168322295708
0 CUTE-1.7+APD II
1 32785U 08021C   13289.75178087  .00001684  00000-0  20746-3 0  7632
2 32785 097.7363 343.7426 0012849 266.8951 213.9671 14.84173992295904
0 CUTE-1.7+APD II
1 32785U 08021C   13291.08804016  .00001554  00000-0  19183-3 0  7649
2 32785 097.7360 345.0386 0012867 262.0320 154.1140 14.84178907296100
0 CUTE-1.7+APD II
1 32785U 08021C   13292.16855610  .00001625  00000-0  20039-3 0  7657
2 32785 097.7359 346.0864 0012912 258.1615 167.6840 14.84181924296260
0 CUTE-1.7+APD II
1 32785U 08021C   13293.38070837  .00001783  00000-0  21924-3 0  7662
2 32785 097.7358 347.2619 0012997 253.9090 164.5628 14.84185698296445
0 CUTE-1.7+APD II
1 32785U 08021C   13294.39254868  .00001800  00000-0  22122-3 0  7674
2 32785 097.7357 348.2431 0013039 250.2640 171.2261 14.84188926296597
0 CUTE-1.7+APD II
1 32785U 08021C   13295.75562049  .00002032  00000-0  24887-3 0  7687
2 32785 097.7358 349.5649 0013111 245.4521 254.5771 14.84193062296798
